[{"OBJECT_NAME":"YAOGAN-31 03C","OBJECT_ID":"2021-014E","EPOCH":"2026-03-10T00:23:44.728224","MEAN_MOTION":13.45441798,"ECCENTRICITY":0.01685112,"INCLINATION":63.4015,"RA_OF_ASC_NODE":92.564,"ARG_OF_PERICENTER":0.4997,"MEAN_ANOMALY":359.6168,"EPHEMERIS_TYPE":0,"CLASSIFICATION_TYPE":"U","NORAD_CAT_ID":47695,"ELEMENT_SET_NO":999,"REV_AT_EPOCH":24738,"BSTAR":0.00041950117,"MEAN_MOTION_DOT":1.81e-6,"MEAN_MOTION_DDOT":0},{"OBJECT_NAME":"COSMOS 1759","OBJECT_ID":"1986-047A","EPOCH":"2026-03-10T00:04:03.188352","MEAN_MOTION":13.75193197,"ECCENTRICITY":0.00247848,"INCLINATION":82.9159,"RA_OF_ASC_NODE":262.1603,"ARG_OF_PERICENTER":167.8272,"MEAN_ANOMALY":345.0836,"EPHEMERIS_TYPE":0,"CLASSIFICATION_TYPE":"U","NORAD_CAT_ID":16798,"ELEMENT_SET_NO":999,"REV_AT_EPOCH":99306,"BSTAR":5.5365134e-5,"MEAN_MOTION_DOT":6.8e-7,"MEAN_MOTION_DDOT":0}]
